{
  "type": "FeatureCollection",
  "features": [
    {
      "type": "Feature",
      "properties": {
        "norad_id": 66842,
        "name": "STARLINK-35769",
        "group": "last-30-days",
        "lat": -51.23556241731298,
        "lon": 159.8344544593727,
        "alt_km": 379.34283431704716,
        "timestamp": "2025-12-16T23:36:34.924615+00:00",
        "meta_object_name": "STARLINK-35769",
        "meta_object_id": "2025-280X",
        "meta_epoch": "2025-12-16T06:00:02.999808",
        "meta_mean_motion": 15.67483335,
        "meta_eccentricity": 0.00035325,
        "meta_inclination": 69.998,
        "meta_ra_of_asc_node": 188.8614,
        "meta_arg_of_pericenter": 276.235,
        "meta_mean_anomaly": 212.8724,
        "meta_ephemeris_type": 0,
        "meta_classification_type": "U",
        "meta_norad_cat_id": 66842,
        "meta_element_set_no": 999,
        "meta_rev_at_epoch": 346,
        "meta_bstar": -0.020404887,
        "meta_mean_motion_dot": -0.01963226,
        "meta_mean_motion_ddot": 0,
        "tle_line1": "1 66842U 25280X   25350.25003472 -.01963226  00000+0 -20405-1 0  9993",
        "tle_line2": "2 66842  69.9980 188.8614 0003532 276.2350 212.8724 15.67483335  3467"
      },
      "geometry": {
        "type": "Point",
        "coordinates": [
          159.8344544593727,
          -51.23556241731298
        ]
      }
    },
    {
      "type": "Feature",
      "properties": {
        "norad_id": 66843,
        "name": "STARLINK-35997",
        "group": "last-30-days",
        "lat": -47.98563496066777,
        "lon": 162.95563953061503,
        "alt_km": 379.2382881809772,
        "timestamp": "2025-12-16T23:36:34.924631+00:00",
        "meta_object_name": "STARLINK-35997",
        "meta_object_id": "2025-280Y",
        "meta_epoch": "2025-12-16T06:00:02.999808",
        "meta_mean_motion": 15.67480784,
        "meta_eccentricity": 0.00035904,
        "meta_inclination": 69.9981,
        "meta_ra_of_asc_node": 188.8561,
        "meta_arg_of_pericenter": 278.0448,
        "meta_mean_anomaly": 214.898,
        "meta_ephemeris_type": 0,
        "meta_classification_type": "U",
        "meta_norad_cat_id": 66843,
        "meta_element_set_no": 999,
        "meta_rev_at_epoch": 346,
        "meta_bstar": -0.020377761,
        "meta_mean_motion_dot": -0.01960794,
        "meta_mean_motion_ddot": 0,
        "tle_line1": "1 66843U 25280Y   25350.25003472 -.01960794  00000+0 -20378-1 0  9990",
        "tle_line2": "2 66843  69.9981 188.8561 0003590 278.0448 214.8980 15.67480784  3463"
      },
      "geometry": {
        "type": "Point",
        "coordinates": [
          162.95563953061503,
          -47.98563496066777
        ]
      }
    },
    {
      "type": "Feature",
      "properties": {
        "norad_id": 66844,
        "name": "STARLINK-36073",
        "group": "last-30-days",
        "lat": -49.62393707555151,
        "lon": 161.44506792716598,
        "alt_km": 379.2442019044738,
        "timestamp": "2025-12-16T23:36:34.924641+00:00",
        "meta_object_name": "STARLINK-36073",
        "meta_object_id": "2025-280Z",
        "meta_epoch": "2025-12-16T06:00:02.999808",
        "meta_mean_motion": 15.67480367,
        "meta_eccentricity": 0.00036187,
        "meta_inclination": 69.9982,
        "meta_ra_of_asc_node": 188.8591,
        "meta_arg_of_pericenter": 278.0335,
        "meta_mean_anomaly": 212.994,
        "meta_ephemeris_type": 0,
        "meta_classification_type": "U",
        "meta_norad_cat_id": 66844,
        "meta_element_set_no": 999,
        "meta_rev_at_epoch": 346,
        "meta_bstar": -0.020396978,
        "meta_mean_motion_dot": -0.01962426,
        "meta_mean_motion_ddot": 0,
        "tle_line1": "1 66844U 25280Z   25350.25003472 -.01962426  00000+0 -20397-1 0  9996",
        "tle_line2": "2 66844  69.9982 188.8591 0003618 278.0335 212.9940 15.67480367  3466"
      },
      "geometry": {
        "type": "Point",
        "coordinates": [
          161.44506792716598,
          -49.62393707555151
        ]
      }
    },
    {
      "type": "Feature",
      "properties": {
        "norad_id": 66845,
        "name": "STARLINK-36068",
        "group": "last-30-days",
        "lat": -42.97927296051899,
        "lon": 166.95678049326958,
        "alt_km": 379.2534957676053,
        "timestamp": "2025-12-16T23:36:34.924653+00:00",
        "meta_object_name": "STARLINK-36068",
        "meta_object_id": "2025-280AA",
        "meta_epoch": "2025-12-16T06:00:02.999808",
        "meta_mean_motion": 15.67484737,
        "meta_eccentricity": 0.00035261,
        "meta_inclination": 69.998,
        "meta_ra_of_asc_node": 188.8492,
        "meta_arg_of_pericenter": 277.1753,
        "meta_mean_anomaly": 221.5143,
        "meta_ephemeris_type": 0,
        "meta_classification_type": "U",
        "meta_norad_cat_id": 66845,
        "meta_element_set_no": 999,
        "meta_rev_at_epoch": 346,
        "meta_bstar": -0.020436877,
        "meta_mean_motion_dot": -0.01966039,
        "meta_mean_motion_ddot": 0,
        "tle_line1": "1 66845U 25280AA  25350.25003472 -.01966039  00000+0 -20437-1 0  9996",
        "tle_line2": "2 66845  69.9980 188.8492 0003526 277.1753 221.5143 15.67484737  3463"
      },
      "geometry": {
        "type": "Point",
        "coordinates": [
          166.95678049326958,
          -42.97927296051899
        ]
      }
    },
    {
      "type": "Feature",
      "properties": {
        "norad_id": 66846,
        "name": "STARLINK-36055",
        "group": "last-30-days",
        "lat": -46.32075418113875,
        "lon": 164.38023607533697,
        "alt_km": 379.3193691235547,
        "timestamp": "2025-12-16T23:36:34.924664+00:00",
        "meta_object_name": "STARLINK-36055",
        "meta_object_id": "2025-280AB",
        "meta_epoch": "2025-12-16T06:00:02.999808",
        "meta_mean_motion": 15.67474475,
        "meta_eccentricity": 0.00034376,
        "meta_inclination": 69.9981,
        "meta_ra_of_asc_node": 188.8541,
        "meta_arg_of_pericenter": 276.0683,
        "meta_mean_anomaly": 218.7922,
        "meta_ephemeris_type": 0,
        "meta_classification_type": "U",
        "meta_norad_cat_id": 66846,
        "meta_element_set_no": 999,
        "meta_rev_at_epoch": 346,
        "meta_bstar": -0.020240609,
        "meta_mean_motion_dot": -0.01948527,
        "meta_mean_motion_ddot": 0,
        "tle_line1": "1 66846U 25280AB  25350.25003472 -.01948527  00000+0 -20241-1 0  9992",
        "tle_line2": "2 66846  69.9981 188.8541 0003437 276.0683 218.7922 15.67474475  3462"
      },
      "geometry": {
        "type": "Point",
        "coordinates": [
          164.38023607533697,
          -46.32075418113875
        ]
      }
    },
    {
      "type": "Feature",
      "properties": {
        "norad_id": 66847,
        "name": "STARLINK-36061",
        "group": "last-30-days",
        "lat": -44.673794417279396,
        "lon": 165.6929309837442,
        "alt_km": 379.36479819886335,
        "timestamp": "2025-12-16T23:36:34.924674+00:00",
        "meta_object_name": "STARLINK-36061",
        "meta_object_id": "2025-280AC",
        "meta_epoch": "2025-12-16T06:00:02.999808",
        "meta_mean_motion": 15.6749082,
        "meta_eccentricity": 0.0003482,
        "meta_inclination": 69.9979,
        "meta_ra_of_asc_node": 188.8518,
        "meta_arg_of_pericenter": 276.0755,
        "meta_mean_anomaly": 220.6954,
        "meta_ephemeris_type": 0,
        "meta_classification_type": "U",
        "meta_norad_cat_id": 66847,
        "meta_element_set_no": 999,
        "meta_rev_at_epoch": 341,
        "meta_bstar": -0.02056018,
        "meta_mean_motion_dot": -0.01976902,
        "meta_mean_motion_ddot": 0,
        "tle_line1": "1 66847U 25280AC  25350.25003472 -.01976902  00000+0 -20560-1 0  9995",
        "tle_line2": "2 66847  69.9979 188.8518 0003482 276.0755 220.6954 15.67490820  3418"
      },
      "geometry": {
        "type": "Point",
        "coordinates": [
          165.6929309837442,
          -44.673794417279396
        ]
      }
    },
    {
      "type": "Feature",
      "properties": {
        "norad_id": 66848,
        "name": "STARLINK-36091",
        "group": "last-30-days",
        "lat": -41.052480892733925,
        "lon": 27.082928696224823,
        "alt_km": 331.43633513249006,
        "timestamp": "2025-12-16T23:36:34.924685+00:00",
        "meta_object_name": "STARLINK-36091",
        "meta_object_id": "2025-281A",
        "meta_epoch": "2025-12-16T06:00:02.999808",
        "meta_mean_motion": 15.82211665,
        "meta_eccentricity": 0.00014797,
        "meta_inclination": 43.0007,
        "meta_ra_of_asc_node": 100.7375,
        "meta_arg_of_pericenter": 271.4184,
        "meta_mean_anomaly": 152.3355,
        "meta_ephemeris_type": 0,
        "meta_classification_type": "U",
        "meta_norad_cat_id": 66848,
        "meta_element_set_no": 999,
        "meta_rev_at_epoch": 196,
        "meta_bstar": -0.0061384592,
        "meta_mean_motion_dot": -0.01164557,
        "meta_mean_motion_ddot": 0,
        "tle_line1": "1 66848U 25281A   25350.25003472 -.01164557  00000+0 -61385-2 0  9993",
        "tle_line2": "2 66848  43.0007 100.7375 0001479 271.4184 152.3355 15.82211665  1966"
      },
      "geometry": {
        "type": "Point",
        "coordinates": [
          27.082928696224823,
          -41.052480892733925
        ]
      }
    }
  ]
}